{"epoch":1784902576,"count":18312,"objects":[{"id":"40920","name":"COSMOS 2507","type":"PAYLOAD","l1":"1 40920U 15050A   26205.25965749 -.00000041  00000-0 -36701-3 0  9995","l2":"2 40920  82.4905  56.5834 0008865 270.9569  89.0495 12.42927382491460"},{"id":"40921","name":"COSMOS 2508","type":"PAYLOAD","l1":"1 40921U 15050B   26205.29551826 -.00000034  00000-0 -31727-3 0  9992","l2":"2 40921  82.4858  55.0519 0013562 305.9339  54.0482 12.42915151491454"},{"id":"40922","name":"COSMOS 2509","type":"PAYLOAD","l1":"1 40922U 15050C   26205.31676485 -.00000014  00000-0 -17324-3 0  9990","l2":"2 40922  82.4866  55.1449 0014202 323.9256  36.0864 12.42884707491497"},{"id":"40958","name":"LQSAT","type":"PAYLOAD","l1":"1 40958U 15057A   26205.26746603  .00000476  00000-0  74580-4 0  9998","l2":"2 40958  97.6707 196.8111 0017741 147.1870 213.0447 14.76820724580789"},{"id":"40959","name":"LINGQIAO VIDEO A","type":"PAYLOAD","l1":"1 40959U 15057B   26205.27293222  .00000797  00000-0  11853-3 0  9993","l2":"2 40959  97.6647 198.2498 0017540 144.1592 216.0800 14.77435110580881"},{"id":"40960","name":"LINGQIAO VIDEO B","type":"PAYLOAD","l1":"1 40960U 15057C   26205.31467031  .00000640  00000-0  96182-4 0  9997","l2":"2 40960  97.6612 199.4432 0017705 144.1432 216.0971 14.77541055580933"},{"id":"40961","name":"JILIN 1","type":"PAYLOAD","l1":"1 40961U 15057D   26205.24380495  .00000791  00000-0  11555-3 0  9995","l2":"2 40961  97.6526 202.7745 0017974 138.6392 221.6184 14.78212521581083"},{"id":"40967","name":"FOX-1","type":"PAYLOAD","l1":"1 40967U 15058D   26205.30872828  .00004471  00000-0  39396-3 0  9997","l2":"2 40967  64.7741 163.6053 0133129  42.3614 318.7684 14.91140428119103"},{"id":"40968","name":"BISONSAT","type":"PAYLOAD","l1":"1 40968U 15058E   26205.24584208  .00006637  00000-0  51877-3 0  9997","l2":"2 40968  64.7745 142.8366 0121793  38.7378 322.2391 14.96166392122207"},{"id":"41105","name":"ELEKTRO-L 2","type":"PAYLOAD","l1":"1 41105U 15074A   26204.96586341 -.00000118  00000-0  00000-0 0  9995","l2":"2 41105   6.7841  70.0677 0000601 231.2818 333.5735  1.00272751 38878"},{"id":"41173","name":"DAMPE","type":"PAYLOAD","l1":"1 41173U 15078A   26205.29630927  .00001385  00000-0  49011-4 0  9996","l2":"2 41173  97.4575 210.9495 0010567 310.7028  49.3294 15.30871302590224"},{"id":"41179","name":"ORBCOMM FM 114","type":"PAYLOAD","l1":"1 41179U 15081A   26205.16644356  .00000453  00000-0  13192-3 0  9998","l2":"2 41179  47.0033 187.1658 0002555 344.0041  16.0764 14.58894782563150"},{"id":"41182","name":"ORBCOMM FM 110","type":"PAYLOAD","l1":"1 41182U 15081D   26205.29107149  .00000841  00000-0  21382-3 0  9991","l2":"2 41182  47.0005 185.9975 0003834 257.6872 102.3585 14.58930930563047"},{"id":"41184","name":"ORBCOMM FM 112","type":"PAYLOAD","l1":"1 41184U 15081F   26205.05545425  .00000631  00000-0  16944-3 0  9995","l2":"2 41184  46.9990  95.8996 0003140   8.2762 351.8175 14.58949187564333"},{"id":"41185","name":"ORBCOMM FM 113","type":"PAYLOAD","l1":"1 41185U 15081G   26205.10188823  .00000393  00000-0  11929-3 0  9990","l2":"2 41185  47.0008  96.0762 0001691 358.5656   1.5225 14.58889513564322"},{"id":"41187","name":"ORBCOMM FM 108","type":"PAYLOAD","l1":"1 41187U 15081J   26204.85825700  .00000547  00000-0  15167-3 0  9994","l2":"2 41187  47.0062   8.8101 0002077 357.0507   3.0366 14.58919595565430"},{"id":"41188","name":"ORBCOMM FM 117","type":"PAYLOAD","l1":"1 41188U 15081K   26204.89255206  .00000542  00000-0  15079-3 0  9994","l2":"2 41188  47.0024   7.2730 0002462   6.1000 353.9915 14.58906620565485"},{"id":"41189","name":"ORBCOMM FM 116","type":"PAYLOAD","l1":"1 41189U 15081L   26205.14656928  .00000585  00000-0  15988-3 0  9996","l2":"2 41189  47.0023  95.8617 0001758 252.6519 107.4175 14.58916514564338"},{"id":"41338","name":"CHUBUSAT 2","type":"PAYLOAD","l1":"1 41338U 16012B   26205.02374638  .00005912  00000-0  25310-3 0  9998","l2":"2 41338  30.9980  79.5830 0008382  93.7039 266.4561 15.21212334574037"},{"id":"41339","name":"CHUBUSAT 3","type":"PAYLOAD","l1":"1 41339U 16012C   26205.07549102  .00005485  00000-0  25151-3 0  9992","l2":"2 41339  31.0046  89.7198 0008840  79.7964 280.3674 15.18829442573818"},{"id":"41556","name":"ZY 3 2","type":"PAYLOAD","l1":"1 41556U 16033A   26205.28634132  .00007475  00000-0  33756-3 0  9998","l2":"2 41556  97.3822 280.3457 0013672 156.7498 203.4359 15.21176681563628"},{"id":"41599","name":"CARTOSAT 2C","type":"PAYLOAD","l1":"1 41599U 16040A   26204.48330542  .00004010  00000-0  19304-3 0  9997","l2":"2 41599  97.4464 263.9576 0008686  19.1280 341.0279 15.19310130559224"},{"id":"41603","name":"LAPAN A3","type":"PAYLOAD","l1":"1 41603U 16040E   26205.26145670  .00003868  00000-0  12236-3 0  9993","l2":"2 41603  97.1510 200.1983 0008520 235.9111 124.1324 15.33322655560495"},{"id":"41727","name":"GAOFEN 3","type":"PAYLOAD","l1":"1 41727U 16049A   26205.27054240  .00000163  00000-0  62691-4 0  9998","l2":"2 41727  98.4029 212.4979 0001767  81.2381 278.9008 14.42219805523991"},{"id":"41783","name":"PRATHAM","type":"PAYLOAD","l1":"1 41783U 16059A   26204.93398786  .00000681  00000-0  12813-3 0  9994","l2":"2 41783  97.8344 200.1809 0032716 101.0925 259.3962 14.67235398524901"},{"id":"41789","name":"ALSAT 1N","type":"PAYLOAD","l1":"1 41789U 16059G   26205.22970240  .00000808  00000-0  14390-3 0  9997","l2":"2 41789  97.8024 206.9337 0027477  70.3918 290.0251 14.69360150525440"},{"id":"41857","name":"YUNHAI 1","type":"PAYLOAD","l1":"1 41857U 16068A   26205.32239130  .00000335  00000-0  13932-3 0  9996","l2":"2 41857  98.5859 215.9863 0002566 316.8992  43.1991 14.32727693507140"},{"id":"41877","name":"RESOURCESAT 2A","type":"PAYLOAD","l1":"1 41877U 16074A   26205.30309756 -.00000008  00000-0  16314-4 0  9991","l2":"2 41877  98.7513 278.5012 0001819   6.6336 353.4865 14.21610422499571"},{"id":"41898","name":"TANSAT","type":"PAYLOAD","l1":"1 41898U 16081A   26205.25744933  .00000510  00000-0  11668-3 0  9999","l2":"2 41898  98.5385 206.6136 0020038 190.9115 169.1652 14.59976918510031"}]}