OBJECT_NAME,OBJECT_ID,EPOCH,MEAN_MOTION,ECCENTRICITY,INCLINATION,RA_OF_ASC_NODE,ARG_OF_PERICENTER,MEAN_ANOMALY,EPHEMERIS_TYPE,CLASSIFICATION_TYPE,NORAD_CAT_ID,ELEMENT_SET_NO,REV_AT_EPOCH,BSTAR,MEAN_MOTION_DOT,MEAN_MOTION_DDOT
COSMOS 2507 (RODNIK-S 13),2015-050A,2026-07-24T06:13:54.407136,12.42927382,.00088648,82.4905,56.5834,270.9569,89.0495,0,U,40920,999,49146,-.36701174E-3,-.41E-6,0
COSMOS 2508 (RODNIK-S 14),2015-050B,2026-07-24T07:05:32.777664,12.42915151,.00135619,82.4858,55.0519,305.9339,54.0482,0,U,40921,999,49145,-.31727492E-3,-.34E-6,0
COSMOS 2509 (RODNIK-S 15),2015-050C,2026-07-24T07:36:08.483040,12.42884707,.00142025,82.4866,55.1449,323.9256,36.0864,0,U,40922,999,49149,-.17323783E-3,-.14E-6,0
LQSAT,2015-057A,2026-07-24T06:25:09.064992,14.76820724,.00177408,97.6707,196.8111,147.1870,213.0447,0,U,40958,999,58078,.74579591E-4,.476E-5,0
LINGQIAO VIDEO A,2015-057B,2026-07-24T06:33:01.343808,14.77435110,.001754,97.6647,198.2498,144.1592,216.0800,0,U,40959,999,58088,.11852614E-3,.797E-5,0
LINGQIAO VIDEO B,2015-057C,2026-07-24T07:33:07.514784,14.77541055,.00177045,97.6612,199.4432,144.1432,216.0971,0,U,40960,999,58093,.96181945E-4,.64E-5,0
JILIN-1,2015-057D,2026-07-24T05:51:04.747680,14.78212521,.00179739,97.6526,202.7745,138.6392,221.6184,0,U,40961,999,58108,.1155531E-3,.791E-5,0
FOX-1A (AO-85),2015-058D,2026-07-24T07:24:34.123392,14.91140428,.01331291,64.7741,163.6053,42.3614,318.7684,0,U,40967,999,11910,.3939625E-3,.4471E-4,0
SINOD-D 1,2015-058E,2026-07-24T05:54:00.755712,14.96166392,.01217929,64.7745,142.8366,38.7378,322.2391,0,U,40968,999,12220,.51876943E-3,.6637E-4,0
ELEKTRO-L 2,2015-074A,2026-07-23T23:10:50.598624,1.00272751,.00006009,6.7841,70.0677,231.2818,333.5735,0,U,41105,999,3887,0,-.118E-5,0
DAMPE,2015-078A,2026-07-24T07:06:41.120928,15.30871302,.00105665,97.4575,210.9495,310.7028,49.3294,0,U,41173,999,59022,.49011304E-4,.1385E-4,0
ORBCOMM FM114,2015-081A,2026-07-24T03:59:40.723584,14.58894782,.00025549,47.0033,187.1658,344.0041,16.0764,0,U,41179,999,56315,.13192068E-3,.453E-5,0
ORBCOMM FM110,2015-081D,2026-07-24T06:59:08.576736,14.58930930,.00038337,47.0005,185.9975,257.6872,102.3585,0,U,41182,999,56304,.21381967E-3,.841E-5,0
ORBCOMM FM112,2015-081F,2026-07-24T01:19:51.247200,14.58949187,.00031397,46.9990,95.8996,8.2762,351.8175,0,U,41184,999,56433,.16944192E-3,.631E-5,0
ORBCOMM FM113,2015-081G,2026-07-24T02:26:43.143072,14.58889513,.00016912,47.0008,96.0762,358.5656,1.5225,0,U,41185,999,56432,.11928943E-3,.393E-5,0
ORBCOMM FM108,2015-081J,2026-07-23T20:35:53.404800,14.58919595,.00020772,47.0062,8.8101,357.0507,3.0366,0,U,41187,999,56543,.15166879E-3,.547E-5,0
ORBCOMM FM117,2015-081K,2026-07-23T21:25:16.497984,14.58906620,.00024615,47.0024,7.2730,6.1000,353.9915,0,U,41188,999,56548,.15079333E-3,.542E-5,0
ORBCOMM FM116,2015-081L,2026-07-24T03:31:03.585792,14.58916514,.00017579,47.0023,95.8617,252.6519,107.4175,0,U,41189,999,56433,.15988358E-3,.585E-5,0
CHUBUSAT-2,2016-012B,2026-07-24T00:34:11.687232,15.21212334,.00083824,30.9980,79.5830,93.7039,266.4561,0,U,41338,999,57403,.25309742E-3,.5912E-4,0
CHUBUSAT-3,2016-012C,2026-07-24T01:48:42.424128,15.18829442,.000884,31.0046,89.7198,79.7964,280.3674,0,U,41339,999,57381,.25151198E-3,.5485E-4,0
ZIYUAN 3-02 (ZY 3-02),2016-033A,2026-07-24T06:52:19.890048,15.21176681,.00136717,97.3822,280.3457,156.7498,203.4359,0,U,41556,999,56362,.33755537E-3,.7475E-4,0
CARTOSAT-2C,2016-040A,2026-07-23T11:35:57.588288,15.19310130,.0008686,97.4464,263.9576,19.1280,341.0279,0,U,41599,999,55922,.19304E-3,.401E-4,0
LAPAN-A3,2016-040E,2026-07-24T06:16:29.858880,15.33322655,.000852,97.1510,200.1983,235.9111,124.1324,0,U,41603,999,56049,.12235789E-3,.3868E-4,0
GAOFEN-3,2016-049A,2026-07-24T06:29:34.863360,14.42219805,.00017669,98.4029,212.4979,81.2381,278.9008,0,U,41727,999,52399,.62690958E-4,.163E-5,0
PRATHAM,2016-059A,2026-07-23T22:24:56.551104,14.67235398,.00327165,97.8344,200.1809,101.0925,259.3962,0,U,41783,999,52490,.12812713E-3,.681E-5,0
ALSAT-1N,2016-059G,2026-07-24T05:30:46.287360,14.69360150,.00274773,97.8024,206.9337,70.3918,290.0251,0,U,41789,999,52544,.14389523E-3,.808E-5,0
YUNHAI-1 01,2016-068A,2026-07-24T07:44:14.608320,14.32727693,.00025663,98.5859,215.9863,316.8992,43.1991,0,U,41857,999,50714,.13932434E-3,.335E-5,0
RESOURCESAT-2A,2016-074A,2026-07-24T07:16:27.629184,14.21610422,.00018193,98.7513,278.5012,6.6336,353.4865,0,U,41877,999,49957,.16314219E-4,-.8E-7,0
TANSAT,2016-081A,2026-07-24T06:10:43.622112,14.59976918,.00200378,98.5385,206.6136,190.9115,169.1652,0,U,41898,999,51003,.11668293E-3,.51E-5,0
